{
    "links": {
        "self": "http://www.neowsapp.com/rest/v1/neo/3611412?api_key=iIulBulltgU6a56xZRHN4H3l9WmuAYTsLGpBGhQ2"
    },
    "id": "3611412",
    "neo_reference_id": "3611412",
    "name": "(2012 UJ)",
    "designation": "2012 UJ",
    "nasa_jpl_url": "http://ssd.jpl.nasa.gov/sbdb.cgi?sstr=3611412",
    "absolute_magnitude_h": 25.3,
    "estimated_diameter": {
        "kilometers": {
            "estimated_diameter_min": 0.0231502122,
            "estimated_diameter_max": 0.0517654482
        },
        "meters": {
            "estimated_diameter_min": 23.150212221,
            "estimated_diameter_max": 51.7654482198
        },
        "miles": {
            "estimated_diameter_min": 0.0143848705,
            "estimated_diameter_max": 0.0321655483
        },
        "feet": {
            "estimated_diameter_min": 75.9521422633,
            "estimated_diameter_max": 169.8341531374
        }
    },
    "is_potentially_hazardous_asteroid": false,
    "close_approach_data": [
        {
            "close_approach_date": "2012-10-17",
            "close_approach_date_full": "2012-Oct-17 20:53",
            "epoch_date_close_approach": 1350507180000,
            "relative_velocity": {
                "kilometers_per_second": "15.3761241024",
                "kilometers_per_hour": "55354.0467685626",
                "miles_per_hour": "34394.8520046105"
            },
            "miss_distance": {
                "astronomical": "0.0658950205",
                "lunar": "25.6331629745",
                "kilometers": "9857754.710406335",
                "miles": "6125324.741964023"
            },
            "orbiting_body": "Earth"
        }
    ],
    "orbital_data": {
        "orbit_id": "5",
        "orbit_determination_date": "2019-07-16 06:14:59",
        "first_observation_date": "2012-10-16",
        "last_observation_date": "2012-10-17",
        "data_arc_in_days": 1,
        "observations_used": 13,
        "orbit_uncertainty": "8",
        "minimum_orbit_intersection": ".0657602",
        "jupiter_tisserand_invariant": "4.798",
        "epoch_osculation": "2456217.5",
        "eccentricity": ".2284863464950333",
        "semi_major_axis": "1.322732807068292",
        "inclination": "28.31188518004623",
        "ascending_node_longitude": "203.1548349757611",
        "orbital_period": "555.6567760160152",
        "perihelion_distance": "1.020506420592138",
        "perihelion_argument": "218.8462775423321",
        "aphelion_distance": "1.624959193544445",
        "perihelion_time": "2456254.477578661231",
        "mean_anomaly": "336.042893936275",
        "mean_motion": ".6478819579618048",
        "equinox": "J2000",
        "orbit_class": {
            "orbit_class_type": "AMO",
            "orbit_class_description": "Near-Earth asteroid orbits similar to that of 1221 Amor",
            "orbit_class_range": "1.017 AU < q (perihelion) < 1.3 AU"
        }
    },
    "is_sentry_object": false
}